[{"OBJECT_NAME":"FLOCK 4G-27","OBJECT_ID":"2025-009AJ","EPOCH":"2026-03-09T18:05:51.175392","MEAN_MOTION":15.27199247,"ECCENTRICITY":7.564e-5,"INCLINATION":97.3976,"RA_OF_ASC_NODE":150.8631,"ARG_OF_PERICENTER":322.4974,"MEAN_ANOMALY":37.6212,"EPHEMERIS_TYPE":0,"CLASSIFICATION_TYPE":"U","NORAD_CAT_ID":62641,"ELEMENT_SET_NO":999,"REV_AT_EPOCH":6371,"BSTAR":0.00047455305,"MEAN_MOTION_DOT":0.00012587,"MEAN_MOTION_DDOT":0},{"OBJECT_NAME":"STARLINK-32677","OBJECT_ID":"2025-032R","EPOCH":"2026-03-09T01:39:19.596384","MEAN_MOTION":15.2755691,"ECCENTRICITY":0.0001167,"INCLINATION":43.0015,"RA_OF_ASC_NODE":339.6819,"ARG_OF_PERICENTER":291.3833,"MEAN_ANOMALY":68.6894,"EPHEMERIS_TYPE":0,"CLASSIFICATION_TYPE":"U","NORAD_CAT_ID":63020,"ELEMENT_SET_NO":999,"REV_AT_EPOCH":6051,"BSTAR":0.0010516232,"MEAN_MOTION_DOT":0.00028769,"MEAN_MOTION_DDOT":0}]
